ONEWEB-0674             
1 55833U 23029AP  23080.84492213  .00006999  00000+0  67949-3 0  9996
2 55833  86.5135 194.0060 0014256 177.0611 183.0703 14.92419310  1800
ONEWEB-0675             
1 55834U 23029AQ  23081.32240377  .00007736  00000+0  77034-3 0  9999
2 55834  86.5111 193.8013 0010756 163.6965 196.4610 14.91451802  2575
ONEWEB-0720             
1 55835U 23029AR  23081.58334491 -.00679068  00000+0 -90500-1 0  9995
2 55835  86.5730 193.7293 0009152 169.1057  36.8813 14.82225226  2585
2023-030A               
1 55836U 23030A   23081.54481152 -.00000135  00000+0 -58586-4 0  9995
2 55836  98.9970  89.7265 0005231 191.5060 168.5989 14.02940970  1778
2023-030B               
1 55837U 23030B   23081.46606280  .00000381  00000+0  27003-3 0  9998
2 55837  98.9976  89.6676 0002247 225.1941 134.9048 14.03782801  1766
2023-030C               
1 55838U 23030C   23081.52365489  .00000369  00000+0  18350-3 0  9990
2 55838  99.0059  90.1616 0087966   8.2800 351.9804 14.21261957  1795
2023-030D               
1 55839U 23030D   23081.54463867 -.00000176  00000+0 -85148-4 0  9990
2 55839  98.9973  89.7278 0005449 192.6176 167.4858 14.02942659  1767
LUCH-5X (OLYMP-K 2)     
1 55841U 23031A   23080.74354986 -.00000203  00000+0  00000+0 0  9995
2 55841   0.2453 346.9007 0049181 192.4004 345.2836  1.00586423    90
BREEZE-M R/B            
1 55842U 23031B   23081.39910454 -.00000126  00000+0  00000+0 0  9990
2 55842   0.2681 284.2662 0069103 149.2643 262.5224  0.98963072    75
BREEZE-M DEB [TANK]     
1 55843U 23031C   23081.35317416  .00000310  00000+0  94555-3 0  9992
2 55843  48.7356 164.9037 7231293   2.0876 359.8123  2.27422341   266
HORUS 2                 
1 55844U 23032A   23081.49503758  .00010165  00000+0  42621-3 0  9991
2 55844  97.4746 155.1664 0011149 217.7980 267.4928 15.23643925  1428
CZ-2C R/B               
1 55845U 23032B   23081.14287038  .00077459  00000+0  38486-2 0  9996
2 55845  97.2620 154.4791 0097660 193.4850 166.3713 15.13199201  1295
CZ-2C DEB               
1 55846U 23032C   23081.21222665  .00007331  00000+0  41115-3 0  9996
2 55846  97.6463 155.1153 0061654 204.7316 155.1020 15.12039369  1375
CZ-2C DEB               
1 55847U 23032D   23081.15720361  .00068063  00000+0  35305-2 0  9998
2 55847  97.6519 154.8063 0109992 190.5384 169.4091 15.10707616  1369
CZ-2C DEB               
1 55848U 23032E   23081.10144082  .00044163  00000+0  38780-2 0  9999
2 55848  97.2706 154.1023 0166309 138.4002 222.8602 14.86343844  1325
CZ-2C DEB               
1 55849U 23032F   23081.11017520  .00040889  00000+0  36758-2 0  9991
2 55849  97.7003 154.4497 0171987 137.6010 223.6017 14.84849753  1335
DRAGON CRS-27           
1 55860U 23033A   23080.59213334  .00015261  00000+0  28104-3 0  9990
2 55860  51.6417  42.5066 0006123 115.9816  34.9851 15.49352032388201
SHIYAN 19 (SY-19)       
1 55861U 23034A   23081.52106624 -.00000070  00000+0  00000+0 0  9993
2 55861  97.4645 269.8097 0013275 256.8604 182.0144 15.20359104  1069
2023-035A               
1 55908U 23035A   23081.01983138 -.00000196  00000+0  00000+0 0  9992
2 55908  44.1829 286.1076 0002962 218.7680 141.4532 14.89691857   758
2023-035B               
1 55909U 23035B   23081.04392326 -.00000195  00000+0  00000+0 0  9998
2 55909  44.0039 286.5289 0004074 259.3166 237.8502 14.90148014   758
2023-035C               
1 55910U 23035C   23081.55457774 -.00000195  00000+0  00000+0 0  9995
2 55910  44.0021 283.8475 0003484 277.8555  82.6656 14.90214903   835
2023-035D               
1 55911U 23035D   23076.05114839 -.00002992  94638-5  00000+0 0  9990
2 55911  44.0016 312.6145 0095145 136.0353 224.7980 16.12542287    16
GAOFEN 13-02            
1 55912U 23036A   23077.88356580  .00000059  00000+0  00000+0 0  9990
2 55912  28.5049 299.6563 7300844 180.5092 161.2501  2.28101003    39
CZ-3B R/B               
1 55913U 23036B   23076.84515855  .00005045  53409-6  10000-3 0  9991
2 55913  28.5059 300.0862 7236718 179.0383  46.5361  2.38624162    18
SES-18                  
1 55970U 23038A   23079.65663200 -.00000485  00000+0  00000+0 0  9997
2 55970  26.7954 358.9196 6299044 178.6124 156.1437  3.57668639   106
SES-19                  
1 55971U 23038B   23081.13964036 -.00000607  00000+0  00000+0 0  9991
2 55971  26.6171 358.3137 7093174 179.6072 340.4542  2.48152438   149
2023-038C               
1 55972U 23038C   23081.10199894 -.00000299  00000+0  00000+0 0  9998
2 55972  26.8991 357.6630 5920816 180.6428 348.6416  4.13957810   263
